CCSDS_OMM_VERS = 2.0
CREATION_DATE  = 
ORIGINATOR     = 

OBJECT_NAME    = STARLINK-35429
OBJECT_ID      = 2025-270C
CENTER_NAME    = EARTH
REF_FRAME      = TEME
TIME_SYSTEM    = UTC
MEAN_ELEMENT_THEORY = SGP/SGP4

EPOCH          = 2025-12-12T06:00:00.999648
MEAN_MOTION    = 15.50689080
ECCENTRICITY   = .00020381
INCLINATION    = 43.0000
RA_OF_ASC_NODE = 195.5971
ARG_OF_PERICENTER = 255.8339
MEAN_ANOMALY   = 276.2412

EPHEMERIS_TYPE = 0
CLASSIFICATION_TYPE = U
NORAD_CAT_ID   = 66590
ELEMENT_SET_NO = 999
REV_AT_EPOCH   = 443
BSTAR          = -.19608157E-2
MEAN_MOTION_DOT = -.114166E-2
MEAN_MOTION_DDOT = 0

CCSDS_OMM_VERS = 2.0
CREATION_DATE  = 
ORIGINATOR     = 

OBJECT_NAME    = STARLINK-36058
OBJECT_ID      = 2025-270D
CENTER_NAME    = EARTH
REF_FRAME      = TEME
TIME_SYSTEM    = UTC
MEAN_ELEMENT_THEORY = SGP/SGP4

EPOCH          = 2025-12-12T06:00:00.999648
MEAN_MOTION    = 15.50649289
ECCENTRICITY   = .0002277
INCLINATION    = 42.9997
RA_OF_ASC_NODE = 195.5867
ARG_OF_PERICENTER = 266.7121
MEAN_ANOMALY   = 269.2669

EPHEMERIS_TYPE = 0
CLASSIFICATION_TYPE = U
NORAD_CAT_ID   = 66591
ELEMENT_SET_NO = 999
REV_AT_EPOCH   = 432
BSTAR          = .31485927E-3
MEAN_MOTION_DOT = .18219E-3
MEAN_MOTION_DDOT = 0

CCSDS_OMM_VERS = 2.0
CREATION_DATE  = 
ORIGINATOR     = 

OBJECT_NAME    = STARLINK-36066
OBJECT_ID      = 2025-270E
CENTER_NAME    = EARTH
REF_FRAME      = TEME
TIME_SYSTEM    = UTC
MEAN_ELEMENT_THEORY = SGP/SGP4

EPOCH          = 2025-12-12T06:00:00.999648
MEAN_MOTION    = 15.51034998
ECCENTRICITY   = .00014052
INCLINATION    = 43.0000
RA_OF_ASC_NODE = 195.5818
ARG_OF_PERICENTER = 255.0543
MEAN_ANOMALY   = 282.8238

EPHEMERIS_TYPE = 0
CLASSIFICATION_TYPE = U
NORAD_CAT_ID   = 66592
ELEMENT_SET_NO = 999
REV_AT_EPOCH   = 422
BSTAR          = -.31583993E-1
MEAN_MOTION_DOT = -.1684448E-1
MEAN_MOTION_DDOT = 0

CCSDS_OMM_VERS = 2.0
CREATION_DATE  = 
ORIGINATOR     = 

OBJECT_NAME    = STARLINK-36031
OBJECT_ID      = 2025-270F
CENTER_NAME    = EARTH
REF_FRAME      = TEME
TIME_SYSTEM    = UTC
MEAN_ELEMENT_THEORY = SGP/SGP4

EPOCH          = 2025-12-12T06:00:00.999648
MEAN_MOTION    = 15.50801232
ECCENTRICITY   = .00016761
INCLINATION    = 42.9999
RA_OF_ASC_NODE = 195.5772
ARG_OF_PERICENTER = 276.1104
MEAN_ANOMALY   = 263.8093

EPHEMERIS_TYPE = 0
CLASSIFICATION_TYPE = U
NORAD_CAT_ID   = 66593
ELEMENT_SET_NO = 999
REV_AT_EPOCH   = 432
BSTAR          = -.75553646E-2
MEAN_MOTION_DOT = -.42379E-2
MEAN_MOTION_DDOT = 0

CCSDS_OMM_VERS = 2.0
CREATION_DATE  = 
ORIGINATOR     = 

OBJECT_NAME    = STARLINK-36032
OBJECT_ID      = 2025-270G
CENTER_NAME    = EARTH
REF_FRAME      = TEME
TIME_SYSTEM    = UTC
MEAN_ELEMENT_THEORY = SGP/SGP4

EPOCH          = 2025-12-12T06:00:00.999648
MEAN_MOTION    = 15.50561724
ECCENTRICITY   = .00019387
INCLINATION    = 42.9999
RA_OF_ASC_NODE = 195.5726
ARG_OF_PERICENTER = 275.1193
MEAN_ANOMALY   = 266.6716

EPHEMERIS_TYPE = 0
CLASSIFICATION_TYPE = U
NORAD_CAT_ID   = 66594
ELEMENT_SET_NO = 999
REV_AT_EPOCH   = 405
BSTAR          = .34109228E-3
MEAN_MOTION_DOT = .19707E-3
MEAN_MOTION_DDOT = 0

CCSDS_OMM_VERS = 2.0
CREATION_DATE  = 
ORIGINATOR     = 

OBJECT_NAME    = STARLINK-35711
OBJECT_ID      = 2025-270H
CENTER_NAME    = EARTH
REF_FRAME      = TEME
TIME_SYSTEM    = UTC
MEAN_ELEMENT_THEORY = SGP/SGP4

EPOCH          = 2025-12-12T06:00:00.999648
MEAN_MOTION    = 15.50559008
ECCENTRICITY   = .0001228
INCLINATION    = 42.9998
RA_OF_ASC_NODE = 195.5673
ARG_OF_PERICENTER = 271.1212
MEAN_ANOMALY   = 272.4553

EPHEMERIS_TYPE = 0
CLASSIFICATION_TYPE = U
NORAD_CAT_ID   = 66595
ELEMENT_SET_NO = 999
REV_AT_EPOCH   = 443
BSTAR          = .75586066E-3
MEAN_MOTION_DOT = .4422E-3
MEAN_MOTION_DDOT = 0

CCSDS_OMM_VERS = 2.0
CREATION_DATE  = 
ORIGINATOR     = 

OBJECT_NAME    = STARLINK-35811
OBJECT_ID      = 2025-270J
CENTER_NAME    = EARTH
REF_FRAME      = TEME
TIME_SYSTEM    = UTC
MEAN_ELEMENT_THEORY = SGP/SGP4

EPOCH          = 2025-12-12T06:00:00.999648
MEAN_MOTION    = 15.47181646
ECCENTRICITY   = .00013465
INCLINATION    = 42.9994
RA_OF_ASC_NODE = 195.5749
ARG_OF_PERICENTER = 261.7146
MEAN_ANOMALY   = 279.2464

EPHEMERIS_TYPE = 0
CLASSIFICATION_TYPE = U
NORAD_CAT_ID   = 66596
ELEMENT_SET_NO = 999
REV_AT_EPOCH   = 443
BSTAR          = -.45199005E-1
MEAN_MOTION_DOT = -.2088437E-1
MEAN_MOTION_DDOT = 0

CCSDS_OMM_VERS = 2.0
CREATION_DATE  = 
ORIGINATOR     = 

OBJECT_NAME    = STARLINK-35820
OBJECT_ID      = 2025-270K
CENTER_NAME    = EARTH
REF_FRAME      = TEME
TIME_SYSTEM    = UTC
MEAN_ELEMENT_THEORY = SGP/SGP4

EPOCH          = 2025-12-12T06:00:00.999648
MEAN_MOTION    = 15.50574327
ECCENTRICITY   = .00018838
INCLINATION    = 43.0001
RA_OF_ASC_NODE = 195.5579
ARG_OF_PERICENTER = 275.0100
MEAN_ANOMALY   = 272.5216

EPHEMERIS_TYPE = 0
CLASSIFICATION_TYPE = U
NORAD_CAT_ID   = 66597
ELEMENT_SET_NO = 999
REV_AT_EPOCH   = 443
BSTAR          = .49855638E-3
MEAN_MOTION_DOT = .2901E-3
MEAN_MOTION_DDOT = 0

CCSDS_OMM_VERS = 2.0
CREATION_DATE  = 
ORIGINATOR     = 

OBJECT_NAME    = STARLINK-35981
OBJECT_ID      = 2025-270L
CENTER_NAME    = EARTH
REF_FRAME      = TEME
TIME_SYSTEM    = UTC
MEAN_ELEMENT_THEORY = SGP/SGP4

EPOCH          = 2025-12-12T06:00:00.999648
MEAN_MOTION    = 15.50542821
ECCENTRICITY   = .0001701
INCLINATION    = 42.9999
RA_OF_ASC_NODE = 195.5527
ARG_OF_PERICENTER = 268.4236
MEAN_ANOMALY   = 281.0866

EPHEMERIS_TYPE = 0
CLASSIFICATION_TYPE = U
NORAD_CAT_ID   = 66598
ELEMENT_SET_NO = 999
REV_AT_EPOCH   = 416
BSTAR          = .25192524E-3
MEAN_MOTION_DOT = .14446E-3
MEAN_MOTION_DDOT = 0

CCSDS_OMM_VERS = 2.0
CREATION_DATE  = 
ORIGINATOR     = 

OBJECT_NAME    = STARLINK-35930
OBJECT_ID      = 2025-270M
CENTER_NAME    = EARTH
REF_FRAME      = TEME
TIME_SYSTEM    = UTC
MEAN_ELEMENT_THEORY = SGP/SGP4

EPOCH          = 2025-12-12T06:00:00.999648
MEAN_MOTION    = 15.50607674
ECCENTRICITY   = .00003887
INCLINATION    = 42.9997
RA_OF_ASC_NODE = 195.5489
ARG_OF_PERICENTER = 320.7074
MEAN_ANOMALY   = 230.6045

EPHEMERIS_TYPE = 0
CLASSIFICATION_TYPE = U
NORAD_CAT_ID   = 66599
ELEMENT_SET_NO = 999
REV_AT_EPOCH   = 432
BSTAR          = -.32987272E-3
MEAN_MOTION_DOT = -.19663E-3
MEAN_MOTION_DDOT = 0

CCSDS_OMM_VERS = 2.0
CREATION_DATE  = 
ORIGINATOR     = 

OBJECT_NAME    = STARLINK-35980
OBJECT_ID      = 2025-270N
CENTER_NAME    = EARTH
REF_FRAME      = TEME
TIME_SYSTEM    = UTC
MEAN_ELEMENT_THEORY = SGP/SGP4

EPOCH          = 2025-12-12T06:00:00.999648
MEAN_MOTION    = 15.50563396
ECCENTRICITY   = .00023767
INCLINATION    = 42.9999
RA_OF_ASC_NODE = 195.5437
ARG_OF_PERICENTER = 275.7381
MEAN_ANOMALY   = 277.5533

EPHEMERIS_TYPE = 0
CLASSIFICATION_TYPE = U
NORAD_CAT_ID   = 66600
ELEMENT_SET_NO = 999
REV_AT_EPOCH   = 422
BSTAR          = .23387283E-3
MEAN_MOTION_DOT = .13395E-3
MEAN_MOTION_DDOT = 0

CCSDS_OMM_VERS = 2.0
CREATION_DATE  = 
ORIGINATOR     = 

OBJECT_NAME    = STARLINK-35978
OBJECT_ID      = 2025-270P
CENTER_NAME    = EARTH
REF_FRAME      = TEME
TIME_SYSTEM    = UTC
MEAN_ELEMENT_THEORY = SGP/SGP4

EPOCH          = 2025-12-12T06:00:00.999648
MEAN_MOTION    = 15.50624602
ECCENTRICITY   = .00012809
INCLINATION    = 42.9999
RA_OF_ASC_NODE = 195.5387
ARG_OF_PERICENTER = 281.6377
MEAN_ANOMALY   = 273.5704

EPHEMERIS_TYPE = 0
CLASSIFICATION_TYPE = U
NORAD_CAT_ID   = 66601
ELEMENT_SET_NO = 999
REV_AT_EPOCH   = 416
BSTAR          = -.18194629E-2
MEAN_MOTION_DOT = -.10582E-2
MEAN_MOTION_DDOT = 0

