STARLINK-35429          
1 66590U 25270C   25346.25001157 -.00114166  00000+0 -19608-2 0  9999
2 66590  43.0000 195.5971 0002038 255.8339 276.2412 15.50689080  4437
STARLINK-36058          
1 66591U 25270D   25346.25001157  .00018219  00000+0  31486-3 0  9999
2 66591  42.9997 195.5867 0002277 266.7121 269.2669 15.50649289  4321
STARLINK-36066          
1 66592U 25270E   25346.25001157 -.01684448  00000+0 -31584-1 0  9993
2 66592  43.0000 195.5818 0001405 255.0543 282.8238 15.51034998  4224
STARLINK-36031          
1 66593U 25270F   25346.25001157 -.00423790  00000+0 -75554-2 0  9990
2 66593  42.9999 195.5772 0001676 276.1104 263.8093 15.50801232  4327
STARLINK-36032          
1 66594U 25270G   25346.25001157  .00019707  00000+0  34109-3 0  9990
2 66594  42.9999 195.5726 0001938 275.1193 266.6716 15.50561724  4057
STARLINK-35711          
1 66595U 25270H   25346.25001157  .00044220  00000+0  75586-3 0  9993
2 66595  42.9998 195.5673 0001228 271.1212 272.4553 15.50559008  4436
STARLINK-35811          
1 66596U 25270J   25346.25001157 -.02088437  00000+0 -45199-1 0  9991
2 66596  42.9994 195.5749 0001346 261.7146 279.2464 15.47181646  4430
STARLINK-35820          
1 66597U 25270K   25346.25001157  .00029010  00000+0  49856-3 0  9996
2 66597  43.0001 195.5579 0001883 275.0100 272.5216 15.50574327  4434
STARLINK-35981          
1 66598U 25270L   25346.25001157  .00014446  00000+0  25193-3 0  9992
2 66598  42.9999 195.5527 0001701 268.4236 281.0866 15.50542821  4167
STARLINK-35930          
1 66599U 25270M   25346.25001157 -.00019663  00000+0 -32987-3 0  9990
2 66599  42.9997 195.5489 0000388 320.7074 230.6045 15.50607674  4320
STARLINK-35980          
1 66600U 25270N   25346.25001157  .00013395  00000+0  23387-3 0  9991
2 66600  42.9999 195.5437 0002376 275.7381 277.5533 15.50563396  4220
STARLINK-35978          
1 66601U 25270P   25346.25001157 -.00105820  00000+0 -18195-2 0  9999
2 66601  42.9999 195.5387 0001280 281.6377 273.5704 15.50624602  4166
